{"type": "FeatureCollection", "features": [ {"type": "Feature", "properties": {"norad_id": 67102, "name": "STARLINK-36255", "group": "last-30-days", "lat": -19.83621068222794, "lon": -153.33498611563672, "alt_km": 340.2328152341561, "timestamp": "2025-12-26T23:26:40.924405+00:00", "meta": {"OBJECT_NAME": "STARLINK-36255", "OBJECT_ID": "2025-299A", "EPOCH": "2025-12-26T18:00:02.998944", "MEAN_MOTION": 15.77945219, "ECCENTRICITY": 0.0001439, "INCLINATION": 42.9976, "RA_OF_ASC_NODE": 230.8243, "ARG_OF_PERICENTER": 275.2474, "MEAN_ANOMALY": 205.2381, "EPHEMERIS_TYPE": 0, "CLASSIFICATION_TYPE": "U", "NORAD_CAT_ID": 67102, "ELEMENT_SET_NO": 999, "REV_AT_EPOCH": 306, "BSTAR": -0.011838, "MEAN_MOTION_DOT": -0.01814113, "MEAN_MOTION_DDOT": 0}, "tle": {"line1": "1 67102U 25299A   25360.75003471 -.01814113  00000+0 -11838-1 0  9998", "line2": "2 67102  42.9976 230.8243 0001439 275.2474 205.2381 15.77945219  3065"}}, "geometry": {"type": "Point", "coordinates": [-153.33498611563672, -19.83621068222794]}}, {"type": "Feature", "properties": {"norad_id": 67103, "name": "STARLINK-36256", "group": "last-30-days", "lat": -18.93176028944074, "lon": -152.15998156521349, "alt_km": 340.3340385093725, "timestamp": "2025-12-26T23:26:40.924414+00:00", "meta": {"OBJECT_NAME": "STARLINK-36256", "OBJECT_ID": "2025-299B", "EPOCH": "2025-12-26T18:00:02.998944", "MEAN_MOTION": 15.77961154, "ECCENTRICITY": 0.0001208, "INCLINATION": 42.9977, "RA_OF_ASC_NODE": 230.8211, "ARG_OF_PERICENTER": 268.1416, "MEAN_ANOMALY": 213.7643, "EPHEMERIS_TYPE": 0, "CLASSIFICATION_TYPE": "U", "NORAD_CAT_ID": 67103, "ELEMENT_SET_NO": 999, "REV_AT_EPOCH": 306, "BSTAR": -0.011788, "MEAN_MOTION_DOT": -0.01808331, "MEAN_MOTION_DDOT": 0}, "tle": {"line1": "1 67103U 25299B   25360.75003471 -.01808331  00000+0 -11788-1 0  9998", "line2": "2 67103  42.9977 230.8211 0001208 268.1416 213.7643 15.77961154  3064"}}, "geometry": {"type": "Point", "coordinates": [-152.15998156521349, -18.93176028944074]}}, {"type": "Feature", "properties": {"norad_id": 67104, "name": "STARLINK-36258", "group": "last-30-days", "lat": -17.934171898289854, "lon": -150.89026839869013, "alt_km": 339.98934100976567, "timestamp": "2025-12-26T23:26:40.924423+00:00", "meta": {"OBJECT_NAME": "STARLINK-36258", "OBJECT_ID": "2025-299C", "EPOCH": "2025-12-26T18:00:02.998944", "MEAN_MOTION": 15.77977934, "ECCENTRICITY": 0.0001432, "INCLINATION": 42.9978, "RA_OF_ASC_NODE": 230.8168, "ARG_OF_PERICENTER": 276.9723, "MEAN_ANOMALY": 206.4881, "EPHEMERIS_TYPE": 0, "CLASSIFICATION_TYPE": "U", "NORAD_CAT_ID": 67104, "ELEMENT_SET_NO": 999, "REV_AT_EPOCH": 306, "BSTAR": -0.011812, "MEAN_MOTION_DOT": -0.01812975, "MEAN_MOTION_DDOT": 0}, "tle": {"line1": "1 67104U 25299C   25360.75003471 -.01812975  00000+0 -11812-1 0  9996", "line2": "2 67104  42.9978 230.8168 0001432 276.9723 206.4881 15.77977934  3060"}}, "geometry": {"type": "Point", "coordinates": [-150.89026839869013, -17.934171898289854]}}, {"type": "Feature", "properties": {"norad_id": 67105, "name": "STARLINK-36261", "group": "last-30-days", "lat": -17.049414826430983, "lon": -149.7844394153992, "alt_km": 339.93897114721767, "timestamp": "2025-12-26T23:26:40.924432+00:00", "meta": {"OBJECT_NAME": "STARLINK-36261", "OBJECT_ID": "2025-299D", "EPOCH": "2025-12-26T18:00:02.998944", "MEAN_MOTION": 15.7799954, "ECCENTRICITY": 0.0001414, "INCLINATION": 42.9975, "RA_OF_ASC_NODE": 230.8136, "ARG_OF_PERICENTER": 273.4328, "MEAN_ANOMALY": 211.389, "EPHEMERIS_TYPE": 0, "CLASSIFICATION_TYPE": "U", "NORAD_CAT_ID": 67105, "ELEMENT_SET_NO": 999, "REV_AT_EPOCH": 306, "BSTAR": -0.0118, "MEAN_MOTION_DOT": -0.018129, "MEAN_MOTION_DDOT": 0}, "tle": {"line1": "1 67105U 25299D   25360.75003471 -.01812900  00000+0 -11800-1 0  9992", "line2": "2 67105  42.9975 230.8136 0001414 273.4328 211.3890 15.77999540  3068"}}, "geometry": {"type": "Point", "coordinates": [-149.7844394153992, -17.049414826430983]}}, {"type": "Feature", "properties": {"norad_id": 67106, "name": "STARLINK-36259", "group": "last-30-days", "lat": -14.849177453352704, "lon": -147.10839309229397, "alt_km": 339.84265922874147, "timestamp": "2025-12-26T23:26:40.924441+00:00", "meta": {"OBJECT_NAME": "STARLINK-36259", "OBJECT_ID": "2025-299E", "EPOCH": "2025-12-26T18:00:02.998944", "MEAN_MOTION": 15.78018293, "ECCENTRICITY": 0.0001458, "INCLINATION": 42.9977, "RA_OF_ASC_NODE": 230.8051, "ARG_OF_PERICENTER": 266.872, "MEAN_ANOMALY": 221.3257, "EPHEMERIS_TYPE": 0, "CLASSIFICATION_TYPE": "U", "NORAD_CAT_ID": 67106, "ELEMENT_SET_NO": 999, "REV_AT_EPOCH": 306, "BSTAR": -0.01178, "MEAN_MOTION_DOT": -0.01811582, "MEAN_MOTION_DDOT": 0}, "tle": {"line1": "1 67106U 25299E   25360.75003471 -.01811582  00000+0 -11780-1 0  9995", "line2": "2 67106  42.9977 230.8051 0001458 266.8720 221.3257 15.78018293  3063"}}, "geometry": {"type": "Point", "coordinates": [-147.10839309229397, -14.849177453352704]}}, {"type": "Feature", "properties": {"norad_id": 67107, "name": "STARLINK-36196", "group": "last-30-days", "lat": -15.996584915636944, "lon": -148.49116096895486, "alt_km": 340.0616910072795, "timestamp": "2025-12-26T23:26:40.924449+00:00", "meta": {"OBJECT_NAME": "STARLINK-36196", "OBJECT_ID": "2025-299F", "EPOCH": "2025-12-26T18:00:02.998944", "MEAN_MOTION": 15.78007973, "ECCENTRICITY": 0.000129, "INCLINATION": 42.9977, "RA_OF_ASC_NODE": 230.8098, "ARG_OF_PERICENTER": 263.0416, "MEAN_ANOMALY": 223.402, "EPHEMERIS_TYPE": 0, "CLASSIFICATION_TYPE": "U", "NORAD_CAT_ID": 67107, "ELEMENT_SET_NO": 999, "REV_AT_EPOCH": 306, "BSTAR": -0.011752, "MEAN_MOTION_DOT": -0.01807037, "MEAN_MOTION_DDOT": 0}, "tle": {"line1": "1 67107U 25299F   25360.75003471 -.01807037  00000+0 -11752-1 0  9995", "line2": "2 67107  42.9977 230.8098 0001290 263.0416 223.4020 15.78007973  3064"}}, "geometry": {"type": "Point", "coordinates": [-148.49116096895486, -15.996584915636944]}}, {"type": "Feature", "properties": {"norad_id": 67108, "name": "STARLINK-36208", "group": "last-30-days", "lat": -13.700111171814862, "lon": -145.74787714492604, "alt_km": 339.77305776848334, "timestamp": "2025-12-26T23:26:40.924460+00:00", "meta": {"OBJECT_NAME": "STARLINK-36208", "OBJECT_ID": "2025-299G", "EPOCH": "2025-12-26T18:00:02.998944", "MEAN_MOTION": 15.7802601, "ECCENTRICITY": 0.0001442, "INCLINATION": 42.9977, "RA_OF_ASC_NODE": 230.8006, "ARG_OF_PERICENTER": 265.3942, "MEAN_ANOMALY": 224.5503, "EPHEMERIS_TYPE": 0, "CLASSIFICATION_TYPE": "U", "NORAD_CAT_ID": 67108, "ELEMENT_SET_NO": 999, "REV_AT_EPOCH": 306, "BSTAR": -0.011783, "MEAN_MOTION_DOT": -0.0181254, "MEAN_MOTION_DDOT": 0}, "tle": {"line1": "1 67108U 25299G   25360.75003471 -.01812540  00000+0 -11783-1 0  9995", "line2": "2 67108  42.9977 230.8006 0001442 265.3942 224.5503 15.78026010  3063"}}, "geometry": {"type": "Point", "coordinates": [-145.74787714492604, -13.700111171814862]}}, {"type": "Feature", "properties": {"norad_id": 67109, "name": "STARLINK-35764", "group": "last-30-days", "lat": -12.47142786487303, "lon": -144.31725560620788, "alt_km": 339.6590979105904, "timestamp": "2025-12-26T23:26:40.924468+00:00", "meta": {"OBJECT_NAME": "STARLINK-35764", "OBJECT_ID": "2025-299H", "EPOCH": "2025-12-26T18:00:02.998944", "MEAN_MOTION": 15.78025964, "ECCENTRICITY": 0.0001323, "INCLINATION": 42.9977, "RA_OF_ASC_NODE": 230.7958, "ARG_OF_PERICENTER": 267.7667, "MEAN_ANOMALY": 224.0409, "EPHEMERIS_TYPE": 0, "CLASSIFICATION_TYPE": "U", "NORAD_CAT_ID": 67109, "ELEMENT_SET_NO": 999, "REV_AT_EPOCH": 295, "BSTAR": -0.011771, "MEAN_MOTION_DOT": -0.01810898, "MEAN_MOTION_DDOT": 0}, "tle": {"line1": "1 67109U 25299H   25360.75003471 -.01810898  00000+0 -11771-1 0  9997", "line2": "2 67109  42.9977 230.7958 0001323 267.7667 224.0409 15.78025964  2951"}}, "geometry": {"type": "Point", "coordinates": [-144.31725560620788, -12.47142786487303]}}, {"type": "Feature", "properties": {"norad_id": 67110, "name": "STARLINK-35781", "group": "last-30-days", "lat": -10.059064004712258, "lon": -141.56969737182237, "alt_km": 339.4844227872318, "timestamp": "2025-12-26T23:26:40.924479+00:00", "meta": {"OBJECT_NAME": "STARLINK-35781", "OBJECT_ID": "2025-299J", "EPOCH": "2025-12-26T18:00:02.998944", "MEAN_MOTION": 15.78032224, "ECCENTRICITY": 0.0001395, "INCLINATION": 42.9979, "RA_OF_ASC_NODE": 230.787, "ARG_OF_PERICENTER": 264.8662, "MEAN_ANOMALY": 230.5587, "EPHEMERIS_TYPE": 0, "CLASSIFICATION_TYPE": "U", "NORAD_CAT_ID": 67110, "ELEMENT_SET_NO": 999, "REV_AT_EPOCH": 301, "BSTAR": -0.011751, "MEAN_MOTION_DOT": -0.01808725, "MEAN_MOTION_DDOT": 0}, "tle": {"line1": "1 67110U 25299J   25360.75003471 -.01808725  00000+0 -11751-1 0  9993", "line2": "2 67110  42.9979 230.7870 0001395 264.8662 230.5587 15.78032224  3014"}}, "geometry": {"type": "Point", "coordinates": [-141.56969737182237, -10.059064004712258]}}, {"type": "Feature", "properties": {"norad_id": 67111, "name": "STARLINK-35875", "group": "last-30-days", "lat": -11.240749919406092, "lon": -142.90584189247372, "alt_km": 339.5297957105249, "timestamp": "2025-12-26T23:26:40.924487+00:00", "meta": {"OBJECT_NAME": "STARLINK-35875", "OBJECT_ID": "2025-299K", "EPOCH": "2025-12-26T18:00:02.998944", "MEAN_MOTION": 15.78030484, "ECCENTRICITY": 0.0001474, "INCLINATION": 42.9979, "RA_OF_ASC_NODE": 230.7916, "ARG_OF_PERICENTER": 267.1861, "MEAN_ANOMALY": 226.47, "EPHEMERIS_TYPE": 0, "CLASSIFICATION_TYPE": "U", "NORAD_CAT_ID": 67111, "ELEMENT_SET_NO": 999, "REV_AT_EPOCH": 295, "BSTAR": -0.011779, "MEAN_MOTION_DOT": -0.01812384, "MEAN_MOTION_DDOT": 0}, "tle": {"line1": "1 67111U 25299K   25360.75003471 -.01812384  00000+0 -11779-1 0  9990", "line2": "2 67111  42.9979 230.7916 0001474 267.1861 226.4700 15.78030484  2950"}}, "geometry": {"type": "Point", "coordinates": [-142.90584189247372, -11.240749919406092]}}]}